GSAT0216 (GALILEO 20)   
1 43056U 17079B   26195.28941631  .00000067  00000+0  00000+0 0  9990
2 43056  55.0681 220.7605 0004886 277.2528  82.7589  1.70474452 53467
GSAT0217 (GALILEO 21)   
1 43057U 17079C   26194.92364590  .00000071  00000+0  00000+0 0  9999
2 43057  55.0663 220.7682 0005177 287.6925  72.3210  1.70474255 53448
GSAT0218 (GALILEO 22)   
1 43058U 17079D   26195.14371946  .00000068  00000+0  00000+0 0  9994
2 43058  55.0664 220.7598 0005403 274.9614  85.0453  1.70474358 53479
BEIDOU-3 M7             
1 43107U 18003A   26194.12464471 -.00000066  00000+0  00000+0 0  9999
2 43107  54.3034 301.4109 0004425  99.0541 261.0198  1.86228081 57833
BEIDOU-3 M8             
1 43108U 18003B   26195.14292031 -.00000067  00000+0  00000+0 0  9995
2 43108  54.2952 301.3566 0003054 257.2300 102.7635  1.86230956 57860
BEIDOU-3 M4             
1 43207U 18018A   26195.04916462 -.00000038  00000+0  00000+0 0  9999
2 43207  56.6746  62.2635 0007446  28.6093 331.5057  1.86230755 57244
BEIDOU-3 M3             
1 43208U 18018B   26194.04174515 -.00000039  00000+0  00000+0 0  9995
2 43208  56.6731  62.3007 0007681 347.0461  13.0059  1.86230649 57225
BEIDOU-3 M9             
1 43245U 18029A   26195.33364073 -.00000063  00000+0  00000+0 0  9998
2 43245  54.1675 298.9986 0001237 187.3558 172.6749  1.86227870 56401
BEIDOU-3 M10            
1 43246U 18029B   26195.26785764 -.00000063  00000+0  00000+0 0  9995
2 43246  54.1653 299.0279 0003254  37.5174 322.5374  1.86229100 56381
IRNSS-1I                
1 43286U 18035A   26195.75669714  .00000054  00000+0  00000+0 0  9995
2 43286  28.8169  73.7659 0018228 177.7601   8.6215  1.00277502 30353
COSMOS 2527 [GLONASS-M] 
1 43508U 18053A   26195.30191606 -.00000008  00000+0  00000+0 0  9993
2 43508  65.5923  73.0036 0006413 229.6749 130.3442  2.13102086 62855
BEIDOU-2 IGSO-7         
1 43539U 18057A   26182.89122331 -.00000033  00000+0  00000+0 0  9998
2 43539  55.1981 162.9292 0104946 237.8611 308.6338  1.00246939 29273
GSAT0221 (GALILEO 25)   
1 43564U 18060A   26195.04779836 -.00000096  00000+0  00000+0 0  9998
2 43564  57.1598 341.0559 0002663 285.3829  74.5732  1.70476069 49629
GSAT0222 (GALILEO 26)   
1 43565U 18060B   26194.68091083 -.00000095  00000+0  00000+0 0  9998
2 43565  57.1635 341.0695 0002781 235.2693 124.6907  1.70475786 49667
GSAT0219 (GALILEO 23)   
1 43566U 18060C   26194.31518514 -.00000093  00000+0  00000+0 0  9990
2 43566  57.1630 341.0808 0001810 299.7576  60.2111  1.70476015 49631
GSAT0220 (GALILEO 24)   
1 43567U 18060D   26194.53619195 -.00000094  00000+0  00000+0 0  9993
2 43567  57.1625 341.0748 0002129 291.2422  68.7213  1.70475652 49621
BEIDOU-3 M5             
1 43581U 18062A   26193.34395808  .00000077  00000+0  00000+0 0  9991
2 43581  54.0867 181.4489 0005696 292.2984  67.6347  1.86228464 54104
BEIDOU-3 M6             
1 43582U 18062B   26195.35535407  .00000047  00000+0  00000+0 0  9993
2 43582  54.0858 181.3698 0005232   9.8784 350.1097  1.86227860 54147
BEIDOU-3 M12            
1 43602U 18067A   26195.29379083  .00000046  00000+0  00000+0 0  9999
2 43602  54.1815 180.1212 0007905  30.2699 329.7517  1.86227611 53620
BEIDOU-3 M11            
1 43603U 18067B   26194.35501980  .00000058  00000+0  00000+0 0  9992
2 43603  54.1790 180.1167 0004598  13.0859 346.9088  1.86227041 53636
BEIDOU-3 M13            
1 43622U 18072A   26194.84670723 -.00000039  00000+0  00000+0 0  9995
2 43622  56.6475  61.7808 0006235 333.7731  26.2691  1.86231187 53152
BEIDOU-3 M14            
1 43623U 18072B   26195.24909091 -.00000039  00000+0  00000+0 0  9994
2 43623  56.6499  61.7618 0005535  10.9720 349.1146  1.86231229 53151
BEIDOU-3 M16            
1 43647U 18078A   26194.33012617 -.00000062  00000+0  00000+0 0  9990
2 43647  54.0645 299.0691 0006650  39.9150 320.1624  1.86232180 52646
BEIDOU-3 M15            
1 43648U 18078B   26194.99634333 -.00000063  00000+0  00000+0 0  9999
2 43648  54.0596 299.0458 0003535  57.7784 302.2870  1.86232312 52677
BEIDOU-3 G1             
1 43683U 18085A   26195.80455755 -.00000120  00000+0  00000+0 0  9990
2 43683   2.9354  96.6255 0008003 356.2807 289.3566  1.00272514 28331
COSMOS 2529 [GLONASS-M] 
1 43687U 18086A   26192.11333993  .00000113  00000+0  00000+0 0  9996
2 43687  64.2969 191.7864 0012111 256.4030 103.4921  2.13101972 59794
BEIDOU-3 M17            
1 43706U 18093A   26195.42697412  .00000046  00000+0  00000+0 0  9997
2 43706  54.1701 181.3721 0010121 294.2367 245.8678  1.86228278 52046
BEIDOU-3 M18            
1 43707U 18093B   26195.02183770  .00000051  00000+0  00000+0 0  9997
2 43707  54.1709 181.3784 0008081 322.4922  37.4315  1.86226640 52030
NAVSTAR 77 (USA 289)    
1 43873U 18109A   26195.63423013 -.00000024  00000+0  00000+0 0  9994
2 43873  55.6982  91.1036 0038552 197.1681 304.6154  2.00562699 55628
BEIDOU-3 IGSO-1         
1 44204U 19023A   26194.49395858 -.00000204  00000+0  00000+0 0  9997
2 44204  58.7323  37.3789 0025734 224.1077 326.8166  1.00283496  7478
BEIDOU-2 G8             
1 44231U 19027A   26195.80152420 -.00000257  00000+0  00000+0 0  9991
2 44231   1.7252  74.4886 0009723 282.0956   9.1465  1.00271788 26358
